[{"OBJECT_NAME":"STARLINK-36156","OBJECT_ID":"2025-293D","EPOCH":"2026-03-09T11:40:19.435584","MEAN_MOTION":14.9835049,"ECCENTRICITY":0.00040142,"INCLINATION":70,"RA_OF_ASC_NODE":95.1201,"ARG_OF_PERICENTER":266.14,"MEAN_ANOMALY":93.93,"EPHEMERIS_TYPE":0,"CLASSIFICATION_TYPE":"U","NORAD_CAT_ID":67006,"ELEMENT_SET_NO":999,"REV_AT_EPOCH":1485,"BSTAR":0.00030061031,"MEAN_MOTION_DOT":3.498e-5,"MEAN_MOTION_DDOT":0},{"OBJECT_NAME":"COSMOS 375 DEB","OBJECT_ID":"1970-091Z","EPOCH":"2026-03-09T13:43:41.947392","MEAN_MOTION":13.58948418,"ECCENTRICITY":0.0630836,"INCLINATION":62.9049,"RA_OF_ASC_NODE":140.391,"ARG_OF_PERICENTER":272.7873,"MEAN_ANOMALY":80.1163,"EPHEMERIS_TYPE":0,"CLASSIFICATION_TYPE":"U","NORAD_CAT_ID":4728,"ELEMENT_SET_NO":999,"REV_AT_EPOCH":66345,"BSTAR":0.0008215,"MEAN_MOTION_DOT":2.183e-5,"MEAN_MOTION_DDOT":0}]
